HAWK-5A                 
1 52757U 22057AB  26203.69869860  .00019598  00000+0  32108-3 0  9995
2 52757  97.6635   4.8796 0002924 300.9143  59.1822 15.52520606231853
HAWK-6B                 
1 55324U 23011A   26204.18090474  .00004270  00000+0  18476-3 0  9994
2 55324  40.4981 142.0832 0004586 280.0862  79.9430 15.23205605193336
HAWK-6C                 
1 55326U 23011C   26204.18027272  .00004091  00000+0  17737-3 0  9992
2 55326  40.4973 138.9222 0005052 275.8701  84.1532 15.23204661193342
HAWK-6A                 
1 55327U 23011D   26204.24587340  .00004180  00000+0  18102-3 0  9993
2 55327  40.4985 140.1672 0004779 272.9929  87.0333 15.23206114193352
HAWK-7A                 
1 56191U 23054P   26204.20479234  .00005357  00000+0  20062-3 0  9993
2 56191  97.2652  90.6260 0000945 266.9851  93.1281 15.27693531182527
HAWK-7B                 
1 56193U 23054R   26204.20472219  .00005452  00000+0  20413-3 0  9997
2 56193  97.2682  88.9021 0000445 353.8356   6.2878 15.27695661182521
HAWK-7C                 
1 56200U 23054Y   26204.20459575  .00005368  00000+0  20104-3 0  9999
2 56200  97.2656  89.6598 0000329 252.4022 107.7182 15.27694220182528
